*******************************************************************************
Ephemeris / WWW_USER Fri Mar  7 11:01:39 2025 Pasadena, USA      / Horizons    
*******************************************************************************
Target body name: (2018 UM1)                      {source: JPL#32}
Center body name: Earth (399)                     {source: DE441}
Center-site name: Mauna Kea
*******************************************************************************
Start time      : A.D. 2018-Dec-31 04:03:00.0000 UT      
Stop  time      : A.D. 2018-Dec-31 16:46:00.0000 UT      
Step-size       : 1 minutes
*******************************************************************************
Target pole/equ : undefined
Target radii    : undefined                                                    
Center geodetic : 204.5278, 19.8260847, 4.21024   {E-lon(deg),Lat(deg),Alt(km)}
Center cylindric: 204.5278, 6006.35451, 2151.0229 {E-lon(deg),Dxy(km),Dz(km)}
Center pole/equ : ITRF93                          {East-longitude positive}
Center radii    : 6378.137, 6378.137, 6356.752 km {Equator_a, b, pole_c}       
Target primary  : Sun
Vis. interferer : MOON (R_eq= 1737.400) km        {source: DE441}
Rel. light bend : Sun                             {source: DE441}
Rel. lght bnd GM: 1.3271E+11 km^3/s^2                                          
Small-body perts: Yes                             {source: SB441-N16}
Atmos refraction: NO (AIRLESS)
RA format       : HMS
Time format     : CAL 
Calendar mode   : Mixed Julian/Gregorian
RTS-only print  : NO       
EOP file        : eop.250306.p250602                                           
EOP coverage    : DATA-BASED 1962-JAN-20 TO 2025-MAR-06. PREDICTS-> 2025-JUN-01
Units conversion: 1 au= 149597870.700 km, c= 299792.458 km/s, 1 day= 86400.0 s 
Table cut-offs 1: Elevation (-90.0deg=NO ),Airmass (>38.000=NO), Daylight (YES)
Table cut-offs 2: Solar elongation (  0.0,180.0=NO ),Local Hour Angle( 0.0=NO )
Table cut-offs 3: RA/DEC angular rate (     0.0=NO )                           
*******************************************************************************
Initial IAU76/J2000 heliocentric ecliptic osculating elements (au, days, deg.):
  EPOCH=  2458316.5 ! 2018-Jul-17.00 (TDB)         Residual RMS= .13282        
   EC= .1732206266096905   QR= .9442469573310488   TP= 2458347.0882341689      
   OM= 261.2771090241423   W=  53.36399135060417   IN= 1.987806152492243       
  Equivalent ICRF heliocentric cartesian coordinates (au, au/d):
   X= 1.631856825953344E-01  Y=-8.815145891163165E-01  Z=-3.705958742828900E-01
  VX= 1.811434055353769E-02 VY= 4.114587132606022E-03 VZ= 2.434006136501484E-03
Asteroid physical parameters (km, seconds, rotational period in hours):        
   GM= n.a.                RAD= n.a.               ROTPER= n.a.                
   H= 23.64                G= .150                 B-V= n.a.                   
                           ALBEDO= n.a.            STYP= n.a.                  
*******************************************************************************
 Date__(UT)__HR:MN     R.A._________(ICRF)_________DEC
******************************************************
$$SOE
 2018-Dec-31 08:09     02 22 31.995036 +14 01 12.55283
 2018-Dec-31 08:10     02 22 32.075836 +14 01 12.79052
 2018-Dec-31 08:11     02 22 32.156649 +14 01 13.02814
 2018-Dec-31 08:12     02 22 32.237476 +14 01 13.26568
 2018-Dec-31 08:13     02 22 32.318316 +14 01 13.50314
 2018-Dec-31 08:14     02 22 32.399171 +14 01 13.74053
 2018-Dec-31 08:15     02 22 32.480039 +14 01 13.97784
 2018-Dec-31 08:16     02 22 32.560922 +14 01 14.21508
 2018-Dec-31 08:17     02 22 32.641819 +14 01 14.45225
 2018-Dec-31 08:18     02 22 32.722730 +14 01 14.68934
 2018-Dec-31 08:19     02 22 32.803656 +14 01 14.92636
 2018-Dec-31 08:20     02 22 32.884596 +14 01 15.16330
 2018-Dec-31 08:21     02 22 32.965550 +14 01 15.40017
 2018-Dec-31 08:22     02 22 33.046520 +14 01 15.63696
 2018-Dec-31 08:23     02 22 33.127504 +14 01 15.87368
 2018-Dec-31 08:24     02 22 33.208503 +14 01 16.11033
 2018-Dec-31 08:25     02 22 33.289517 +14 01 16.34691
 2018-Dec-31 08:26     02 22 33.370546 +14 01 16.58341
 2018-Dec-31 08:27     02 22 33.451590 +14 01 16.81984
 2018-Dec-31 08:28     02 22 33.532649 +14 01 17.05620
 2018-Dec-31 08:29     02 22 33.613724 +14 01 17.29249
 2018-Dec-31 08:30     02 22 33.694814 +14 01 17.52870
 2018-Dec-31 08:31     02 22 33.775919 +14 01 17.76484
 2018-Dec-31 08:32     02 22 33.857041 +14 01 18.00092
 2018-Dec-31 08:33     02 22 33.938177 +14 01 18.23692
 2018-Dec-31 08:34     02 22 34.019330 +14 01 18.47285
 2018-Dec-31 08:35     02 22 34.100499 +14 01 18.70871
 2018-Dec-31 08:36     02 22 34.181683 +14 01 18.94450
 2018-Dec-31 08:37     02 22 34.262884 +14 01 19.18022
 2018-Dec-31 08:38     02 22 34.344100 +14 01 19.41587
 2018-Dec-31 08:39     02 22 34.425333 +14 01 19.65145
 2018-Dec-31 08:40     02 22 34.506583 +14 01 19.88696
 2018-Dec-31 08:41     02 22 34.587848 +14 01 20.12240
 2018-Dec-31 08:42     02 22 34.669130 +14 01 20.35778
 2018-Dec-31 08:43     02 22 34.750429 +14 01 20.59308
 2018-Dec-31 08:44     02 22 34.831744 +14 01 20.82832
 2018-Dec-31 08:45     02 22 34.913077 +14 01 21.06349
 2018-Dec-31 08:46     02 22 34.994426 +14 01 21.29859
 2018-Dec-31 08:47     02 22 35.075792 +14 01 21.53363
 2018-Dec-31 08:48     02 22 35.157175 +14 01 21.76859
 2018-Dec-31 08:49     02 22 35.238575 +14 01 22.00349
 2018-Dec-31 08:50     02 22 35.319992 +14 01 22.23833
 2018-Dec-31 08:51     02 22 35.401426 +14 01 22.47309
 2018-Dec-31 08:52     02 22 35.482878 +14 01 22.70779
 2018-Dec-31 08:53     02 22 35.564348 +14 01 22.94243
 2018-Dec-31 08:54     02 22 35.645835 +14 01 23.17700
 2018-Dec-31 08:55     02 22 35.727339 +14 01 23.41150
 2018-Dec-31 08:56     02 22 35.808861 +14 01 23.64594
 2018-Dec-31 08:57     02 22 35.890401 +14 01 23.88032
 2018-Dec-31 08:58     02 22 35.971959 +14 01 24.11463
 2018-Dec-31 08:59     02 22 36.053535 +14 01 24.34887
 2018-Dec-31 09:00     02 22 36.135129 +14 01 24.58305
 2018-Dec-31 09:01     02 22 36.216741 +14 01 24.81717
 2018-Dec-31 09:02     02 22 36.298371 +14 01 25.05123
 2018-Dec-31 09:03     02 22 36.380019 +14 01 25.28522
 2018-Dec-31 09:04     02 22 36.461686 +14 01 25.51915
 2018-Dec-31 09:05     02 22 36.543371 +14 01 25.75301
 2018-Dec-31 09:06     02 22 36.625075 +14 01 25.98682
 2018-Dec-31 09:07     02 22 36.706797 +14 01 26.22056
 2018-Dec-31 09:08     02 22 36.788538 +14 01 26.45424
 2018-Dec-31 09:09     02 22 36.870298 +14 01 26.68786
 2018-Dec-31 09:10     02 22 36.952076 +14 01 26.92142
 2018-Dec-31 09:11     02 22 37.033874 +14 01 27.15491
 2018-Dec-31 09:12     02 22 37.115690 +14 01 27.38835
 2018-Dec-31 09:13     02 22 37.197526 +14 01 27.62173
 2018-Dec-31 09:14     02 22 37.279381 +14 01 27.85504
 2018-Dec-31 09:15     02 22 37.361255 +14 01 28.08830
 2018-Dec-31 09:16     02 22 37.443148 +14 01 28.32150
 2018-Dec-31 09:17     02 22 37.525060 +14 01 28.55464
 2018-Dec-31 09:18     02 22 37.606992 +14 01 28.78772
 2018-Dec-31 09:19     02 22 37.688944 +14 01 29.02074
 2018-Dec-31 09:20     02 22 37.770915 +14 01 29.25370
 2018-Dec-31 09:21     02 22 37.852906 +14 01 29.48661
 2018-Dec-31 09:22     02 22 37.934917 +14 01 29.71945
 2018-Dec-31 09:23     02 22 38.016947 +14 01 29.95225
 2018-Dec-31 09:24     02 22 38.098998 +14 01 30.18498
 2018-Dec-31 09:25     02 22 38.181068 +14 01 30.41766
 2018-Dec-31 09:26     02 22 38.263158 +14 01 30.65028
 2018-Dec-31 09:27     02 22 38.345269 +14 01 30.88284
 2018-Dec-31 09:28     02 22 38.427399 +14 01 31.11535
 2018-Dec-31 09:29     02 22 38.509550 +14 01 31.34780
 2018-Dec-31 09:30     02 22 38.591722 +14 01 31.58020
 2018-Dec-31 09:31     02 22 38.673913 +14 01 31.81255
 2018-Dec-31 09:32     02 22 38.756126 +14 01 32.04484
 2018-Dec-31 09:33     02 22 38.838358 +14 01 32.27707
 2018-Dec-31 09:34     02 22 38.920612 +14 01 32.50925
 2018-Dec-31 09:35     02 22 39.002886 +14 01 32.74138
 2018-Dec-31 09:36     02 22 39.085180 +14 01 32.97346
 2018-Dec-31 09:37     02 22 39.167496 +14 01 33.20548
 2018-Dec-31 09:38     02 22 39.249833 +14 01 33.43745
 2018-Dec-31 09:39     02 22 39.332190 +14 01 33.66937
 2018-Dec-31 09:40     02 22 39.414569 +14 01 33.90123
 2018-Dec-31 09:41     02 22 39.496968 +14 01 34.13305
 2018-Dec-31 09:42     02 22 39.579389 +14 01 34.36481
 2018-Dec-31 09:43     02 22 39.661831 +14 01 34.59652
 2018-Dec-31 09:44     02 22 39.744294 +14 01 34.82818
 2018-Dec-31 09:45     02 22 39.826779 +14 01 35.05979
 2018-Dec-31 09:46     02 22 39.909285 +14 01 35.29135
 2018-Dec-31 09:47     02 22 39.991812 +14 01 35.52287
 2018-Dec-31 09:48     02 22 40.074361 +14 01 35.75433
 2018-Dec-31 09:49     02 22 40.156932 +14 01 35.98574
 2018-Dec-31 09:50     02 22 40.239525 +14 01 36.21711
 2018-Dec-31 09:51     02 22 40.322139 +14 01 36.44842
 2018-Dec-31 09:52     02 22 40.404775 +14 01 36.67969
 2018-Dec-31 09:53     02 22 40.487433 +14 01 36.91091
 2018-Dec-31 09:54     02 22 40.570112 +14 01 37.14209
 2018-Dec-31 09:55     02 22 40.652814 +14 01 37.37321
 2018-Dec-31 09:56     02 22 40.735538 +14 01 37.60430
 2018-Dec-31 09:57     02 22 40.818284 +14 01 37.83533
 2018-Dec-31 09:58     02 22 40.901052 +14 01 38.06632
 2018-Dec-31 09:59     02 22 40.983842 +14 01 38.29726
 2018-Dec-31 10:00     02 22 41.066655 +14 01 38.52816
 2018-Dec-31 10:01     02 22 41.149490 +14 01 38.75901
 2018-Dec-31 10:02     02 22 41.232347 +14 01 38.98982
 2018-Dec-31 10:03     02 22 41.315227 +14 01 39.22058
 2018-Dec-31 10:04     02 22 41.398129 +14 01 39.45130
 2018-Dec-31 10:05     02 22 41.481054 +14 01 39.68198
 2018-Dec-31 10:06     02 22 41.564002 +14 01 39.91262
 2018-Dec-31 10:07     02 22 41.646972 +14 01 40.14321
 2018-Dec-31 10:08     02 22 41.729965 +14 01 40.37376
 2018-Dec-31 10:09     02 22 41.812981 +14 01 40.60426
 2018-Dec-31 10:10     02 22 41.896020 +14 01 40.83473
 2018-Dec-31 10:11     02 22 41.979082 +14 01 41.06515
